NORAD_CAT_ID,OBJECT_NAME,OBJECT_TYPE,EPOCH,MEAN_MOTION,ECCENTRICITY,INCLINATION,RA_OF_ASC_NODE,ARG_OF_PERICENTER,MEAN_ANOMALY,BSTAR,MEAN_MOTION_DOT,MEAN_MOTION_DDOT,TLE_LINE0,TLE_LINE1,TLE_LINE2,SEMIMAJOR_AXIS,PERIOD,APOGEE,PERIGEE,DECAYED
49453.0,STARLINK-3129,PAYLOAD,2024-03-27 12:48:31,15.08851512,0.0001657,53.2161,176.2027,85.32,274.7981,0.00091795,0.00014356,0.0,0 STARLINK-3129,1 49453U 21104AX  24087.53369743  .00014356  00000-0  91795-3 0  9997,2 49453  53.2161 176.2027 0001657  85.3200 274.7981 15.08851512132333,6917.845,95.437,540.856,538.564,0.0
49453.0,STARLINK-3129,PAYLOAD,2024-03-27 22:20:49,15.08858913,0.0001668,53.2161,174.4177,81.3139,278.8042,0.00045343,6.939e-05,0.0,0 STARLINK-3129,1 49453U 21104AX  24087.93113291  .00006939  00000-0  45343-3 0  9992,2 49453  53.2161 174.4177 0001668  81.3139 278.8042 15.08858913131321,6917.823,95.436,540.841,538.534,0.0
49453.0,STARLINK-3129,PAYLOAD,2024-03-28 12:39:18,15.08848967,0.0001187,53.2158,171.7426,85.6102,274.5026,0.0014975,0.00023631,0.0,0 STARLINK-3129,1 49453U 21104AX  24088.52729217  .00023631  00000-0  14975-2 0  9993,2 49453  53.2158 171.7426 0001187  85.6102 274.5026 15.08848967132488,6917.853,95.437,540.539,538.897,0.0
49453.0,STARLINK-3129,PAYLOAD,2024-03-28 22:11:36,15.08853386,0.0001165,53.2153,169.959,85.4633,274.6492,0.0011686,0.00018366,0.0,0 STARLINK-3129,1 49453U 21104AX  24088.92473283  .00018366  00000-0  11686-2 0  9991,2 49453  53.2153 169.9590 0001165  85.4633 274.6492 15.08853386131474,6917.839,95.437,540.51,538.899,0.0
49453.0,STARLINK-3129,PAYLOAD,2024-03-29 12:30:05,15.08844666,0.0001535,53.216,167.2856,103.6797,256.4366,0.00039994,6.084e-05,0.0,0 STARLINK-3129,1 49453U 21104AX  24089.52089431  .00006084  00000-0  39994-3 0  9993,2 49453  53.2160 167.2856 0001535 103.6797 256.4366 15.08844666132631,6917.866,95.437,540.793,538.669,0.0
49453.0,STARLINK-3129,PAYLOAD,2024-03-29 14:05:28,15.0884919,0.0001544,53.2162,166.9873,99.1371,260.9796,0.0006145,9.508e-05,0.0,0 STARLINK-3129,1 49453U 21104AX  24089.58713400  .00009508  00000-0  61450-3 0  9995,2 49453  53.2162 166.9873 0001544  99.1371 260.9796 15.08849190131571,6917.852,95.437,540.785,538.649,0.0
49453.0,STARLINK-3129,PAYLOAD,2024-03-29 22:02:23,15.08848295,0.0001323,53.2152,165.4983,87.0602,273.0541,0.00041809,6.374e-05,0.0,0 STARLINK-3129,1 49453U 21104AX  24089.91833239  .00006374  00000-0  41809-3 0  9999,2 49453  53.2152 165.4983 0001323  87.0602 273.0541 15.08848295131628,6917.855,95.437,540.635,538.805,0.0
49453.0,STARLINK-3129,PAYLOAD,2024-03-30 12:20:52,15.0884824,0.0001393,53.2156,162.823,84.5459,275.5692,0.00022369,3.275e-05,0.0,0 STARLINK-3129,1 49453U 21104AX  24090.51449098  .00003275  00000-0  22369-3 0  9990,2 49453  53.2156 162.8230 0001393  84.5459 275.5692 15.08848240131711,6917.855,95.437,540.684,538.757,0.0
49453.0,STARLINK-3129,PAYLOAD,2024-03-30 21:53:10,15.08846849,0.0001406,53.2152,161.0391,84.7193,275.396,0.00019405,2.802e-05,0.0,0 STARLINK-3129,1 49453U 21104AX  24090.91193074  .00002802  00000-0  19405-3 0  9996,2 49453  53.2152 161.0391 0001406  84.7193 275.3960 15.08846849131773,6917.859,95.437,540.697,538.752,0.0
49453.0,STARLINK-3129,PAYLOAD,2024-03-31 04:14:43,15.0884471,0.0001491,53.216,159.8495,87.6025,272.5138,0.00015463,2.174e-05,0.0,0 STARLINK-3129,1 49453U 21104AX  24091.17689208  .00002174  00000-0  15463-3 0  9996,2 49453  53.2160 159.8495 0001491  87.6025 272.5138 15.08844710132886,6917.866,95.437,540.762,538.7,0.0
49453.0,STARLINK-3129,PAYLOAD,2024-03-31 12:11:38,15.08846885,0.0001399,53.2159,158.3619,90.1069,270.0083,5.7814e-05,6.32e-06,0.0,0 STARLINK-3129,1 49453U 21104AX  24091.50808905  .00000632  00000-0  57814-4 0  9994,2 49453  53.2159 158.3619 0001399  90.1069 270.0083 15.08846885131864,6917.859,95.437,540.692,538.757,0.0
49453.0,STARLINK-3129,PAYLOAD,2024-03-31 21:43:57,15.08841557,0.0001299,53.2149,156.5765,88.6492,271.4649,1.0078e-06,-2.72e-06,0.0,0 STARLINK-3129,1 49453U 21104AX  24091.90553076 -.00000272  00000-0  10078-5 0  9997,2 49453  53.2149 156.5765 0001299  88.6492 271.4649 15.08841557131927,6917.876,95.437,540.639,538.842,0.0
49453.0,STARLINK-3129,PAYLOAD,2024-04-01 10:27:03,15.08838948,0.0001265,53.2156,154.1976,82.3884,277.7252,6.9895e-05,8.25e-06,0.0,0 STARLINK-3129,1 49453U 21104AX  24092.43545390  .00000825  00000-0  69895-4 0  9999,2 49453  53.2156 154.1976 0001265  82.3884 277.7252 15.08838948133079,6917.884,95.438,540.624,538.873,0.0
49453.0,STARLINK-3129,PAYLOAD,2024-04-02 13:28:35,15.08843503,0.0001486,53.2168,149.1406,100.4559,259.66,0.00013023,1.785e-05,0.0,0 STARLINK-3129,1 49453U 21104AX  24093.56152696  .00001785  00000-0  13023-3 0  9994,2 49453  53.2168 149.1406 0001486 100.4559 259.6600 15.08843503132179,6917.87,95.437,540.763,538.707,0.0
49453.0,STARLINK-3129,PAYLOAD,2024-04-03 03:47:04,15.08838048,0.0001492,53.2164,146.4631,90.6075,269.5088,5.5821e-05,6e-06,0.0,0 STARLINK-3129,1 49453U 21104AX  24094.15769217  .00000600  00000-0  55821-4 0  9991,2 49453  53.2164 146.4631 0001492  90.6075 269.5088 15.08838048133332,6917.886,95.438,540.784,538.719,0.0
49453.0,STARLINK-3129,PAYLOAD,2024-04-03 10:08:36,15.08840735,0.0001424,53.2168,145.2741,87.678,272.4375,5.3499e-05,5.64e-06,0.0,0 STARLINK-3129,1 49453U 21104AX  24094.42265008  .00000564  00000-0  53499-4 0  9998,2 49453  53.2168 145.2741 0001424  87.6780 272.4375 15.08840735132303,6917.878,95.438,540.728,538.758,0.0
49453.0,STARLINK-3129,PAYLOAD,2024-04-04 09:59:24,15.08843379,0.0001457,53.2166,140.8147,87.6806,272.4353,1.9146e-05,1.7e-07,0.0,0 STARLINK-3129,1 49453U 21104AX  24095.41625029  .00000017  00000-0  19146-4 0  9995,2 49453  53.2166 140.8147 0001457  87.6806 272.4353 15.08843379133525,6917.87,95.437,540.743,538.727,0.0
49453.0,STARLINK-3129,PAYLOAD,2024-04-04 19:31:42,15.08841402,0.0001349,53.216,139.0317,85.4349,274.6797,2.0565e-05,3.9e-07,0.0,0 STARLINK-3129,1 49453U 21104AX  24095.81369098  .00000039  00000-0  20565-4 0  9991,2 49453  53.2160 139.0317 0001349  85.4349 274.6797 15.08841402132515,6917.876,95.437,540.674,538.808,0.0
49453.0,STARLINK-3129,PAYLOAD,2024-04-05 03:28:38,15.08836062,0.000143,53.2167,137.5454,89.7832,270.3324,5.0406e-05,5.14e-06,0.0,0 STARLINK-3129,1 49453U 21104AX  24096.14489450  .00000514  00000-0  50406-4 0  9998,2 49453  53.2167 137.5454 0001430  89.7832 270.3324 15.08836062133631,6917.892,95.438,540.747,538.768,0.0
49453.0,STARLINK-3129,PAYLOAD,2024-04-05 13:00:57,15.08839526,0.0001449,53.2168,135.7614,89.5775,270.5383,7.023e-05,8.3e-06,0.0,0 STARLINK-3129,1 49453U 21104AX  24096.54233212  .00000830  00000-0  70230-4 0  9993,2 49453  53.2168 135.7614 0001449  89.5775 270.5383 15.08839526132627,6917.882,95.438,540.749,538.744,0.0
49453.0,STARLINK-3129,PAYLOAD,2024-04-05 19:22:30,15.08835683,0.0001423,53.2166,134.5718,88.321,271.7945,4.3714e-05,4.08e-06,0.0,0 STARLINK-3129,1 49453U 21104AX  24096.80729571  .00000408  00000-0  43714-4 0  9998,2 49453  53.2166 134.5718 0001423  88.3210 271.7945 15.08835683132661,6917.894,95.438,540.743,538.774,0.0
49453.0,STARLINK-3129,PAYLOAD,2024-04-06 09:40:58,15.08838957,0.0001414,53.2165,131.8955,90.2401,269.8753,4.2939e-05,3.95e-06,0.0,0 STARLINK-3129,1 49453U 21104AX  24097.40345465  .00000395  00000-0  42939-4 0  9994,2 49453  53.2165 131.8955 0001414  90.2401 269.8753 15.08838957133828,6917.884,95.438,540.727,538.77,0.0
49453.0,STARLINK-3129,PAYLOAD,2024-04-06 19:13:17,15.08836951,0.0001413,53.2164,130.1114,91.5071,268.6083,2.7161e-05,1.44e-06,0.0,0 STARLINK-3129,1 49453U 21104AX  24097.80089689  .00000144  00000-0  27161-4 0  9993,2 49453  53.2164 130.1114 0001413  91.5071 268.6083 15.08836951132815,6917.89,95.438,540.732,538.777,0.0
49453.0,STARLINK-3129,PAYLOAD,2024-04-07 09:31:46,15.08834811,0.0001425,53.2162,127.4347,90.7676,269.3479,2.4867e-07,-2.84e-06,0.0,0 STARLINK-3129,1 49453U 21104AX  24098.39706126 -.00000284  00000-0  24867-6 0  9998,2 49453  53.2162 127.4347 0001425  90.7676 269.3479 15.08834811133973,6917.896,95.438,540.747,538.775,0.0
49453.0,STARLINK-3129,PAYLOAD,2024-04-07 19:04:04,15.08837662,0.0001448,53.2167,125.6503,89.7217,270.3941,4.0399e-05,3.55e-06,0.0,0 STARLINK-3129,1 49453U 21104AX  24098.79449933  .00000355  00000-0  40399-4 0  9996,2 49453  53.2167 125.6503 0001448  89.7217 270.3941 15.08837662132967,6917.888,95.438,540.754,538.751,0.0
49453.0,STARLINK-3129,PAYLOAD,2024-04-08 10:57:56,15.08835689,0.0001456,53.2169,122.6761,90.8794,269.2365,1.7923e-05,-3e-08,0.0,0 STARLINK-3129,1 49453U 21104AX  24099.45690295 -.00000003  00000-0  17923-4 0  9997,2 49453  53.2169 122.6761 0001456  90.8794 269.2365 15.08835689134139,6917.894,95.438,540.766,538.751,0.0
49453.0,STARLINK-3129,PAYLOAD,2024-04-08 18:54:51,15.08839425,0.0001438,53.2169,121.1897,90.7986,269.3171,5.6616e-05,6.13e-06,0.0,0 STARLINK-3129,1 49453U 21104AX  24099.78809999  .00000613  00000-0  56616-4 0  9994,2 49453  53.2169 121.1897 0001438  90.7986 269.3171 15.08839425133110,6917.882,95.438,540.742,538.752,0.0
49453.0,STARLINK-3129,PAYLOAD,2024-04-09 07:37:56,15.08843724,0.0001328,53.2163,118.8099,93.4454,266.669,0.00014514,2.023e-05,0.0,0 STARLINK-3129,1 49453U 21104AX  24100.31801395  .00002023  00000-0  14514-3 0  9995,2 49453  53.2163 118.8099 0001328  93.4454 266.6690 15.08843724134269,6917.869,95.437,540.653,538.815,0.0
49453.0,STARLINK-3129,PAYLOAD,2024-04-09 18:45:38,15.08839599,0.0001258,53.2158,116.7281,93.4572,266.6564,4.6979e-05,4.6e-06,0.0,0 STARLINK-3129,1 49453U 21104AX  24100.78169903  .00000460  00000-0  46979-4 0  9992,2 49453  53.2158 116.7281 0001258  93.4572 266.6564 15.08839599134339,6917.882,95.438,540.617,538.876,0.0
49453.0,STARLINK-3129,PAYLOAD,2024-04-10 04:17:58,15.08830683,0.00013,53.216,114.9449,91.3662,268.7479,-1.0957e-06,-3.05e-06,0.0,0 STARLINK-3129,1 49453U 21104AX  24101.17914736 -.00000305  00000-0 -10957-5 0  9996,2 49453  53.2160 114.9449 0001300  91.3662 268.7479 15.08830683134392,6917.909,95.438,540.673,538.875,0.0
